KUIPER-00251            
1 67156U 25301Z   26008.98527224  .00017814  00000+0  52300-3 0  9994
2 67156  51.8672 353.8450 0009065 177.4321 182.6713 15.35181642  4748
KUIPER-00252            
1 67157U 25301AA  26009.18779579  .00017307  00000+0  51363-3 0  9995
2 67157  51.8667 352.9491 0009792 190.4395 169.6389 15.34856890  4580
KUIPER-00261            
1 67158U 25301AB  26009.16939750  .00602490  00000+0  15562-1 0  9995
2 67158  51.8705 352.8356 0005037 196.9703 163.1115 15.36513805  4589
KUIPER-00265            
1 67159U 25301AC  26009.16668980 -.00020077  00000+0 -71609-3 0  9993
2 67159  51.8775 352.8995 0001604 123.1819 209.1389 15.27899225  4613
