<?xml version="1.0" encoding="UTF-8"?>
<ndm xmlns:xsi="http://www.w3.org/2001/XMLSchema-instance" xsi:noNamespaceSchemaLocation="https://sanaregistry.org/r/ndmxml_unqualified/ndmxml-2.0.0-master-2.0.xsd">
<omm id="CCSDS_OMM_VERS" version="2.0">
<header><CREATION_DATE/><ORIGINATOR/></header><body><segment><metadata><OBJECT_NAME>KUIPER-00251</OBJECT_NAME><OBJECT_ID>2025-301Z</OBJECT_ID><CENTER_NAME>EARTH</CENTER_NAME><REF_FRAME>TEME</REF_FRAME><TIME_SYSTEM>UTC</TIME_SYSTEM><MEAN_ELEMENT_THEORY>SGP4</MEAN_ELEMENT_THEORY></metadata><data><meanElements><EPOCH>2026-01-08T23:38:47.521536</EPOCH><MEAN_MOTION>15.35181642</MEAN_MOTION><ECCENTRICITY>.0009065</ECCENTRICITY><INCLINATION>51.8672</INCLINATION><RA_OF_ASC_NODE>353.8450</RA_OF_ASC_NODE><ARG_OF_PERICENTER>177.4321</ARG_OF_PERICENTER><MEAN_ANOMALY>182.6713</MEAN_ANOMALY></meanElements><tleParameters><EPHEMERIS_TYPE>0</EPHEMERIS_TYPE><CLASSIFICATION_TYPE>U</CLASSIFICATION_TYPE><NORAD_CAT_ID>67156</NORAD_CAT_ID><ELEMENT_SET_NO>999</ELEMENT_SET_NO><REV_AT_EPOCH>474</REV_AT_EPOCH><BSTAR>.523E-3</BSTAR><MEAN_MOTION_DOT>.17814E-3</MEAN_MOTION_DOT><MEAN_MOTION_DDOT>0</MEAN_MOTION_DDOT></tleParameters></data></segment></body></omm>
<omm id="CCSDS_OMM_VERS" version="2.0">
<header><CREATION_DATE/><ORIGINATOR/></header><body><segment><metadata><OBJECT_NAME>KUIPER-00252</OBJECT_NAME><OBJECT_ID>2025-301AA</OBJECT_ID><CENTER_NAME>EARTH</CENTER_NAME><REF_FRAME>TEME</REF_FRAME><TIME_SYSTEM>UTC</TIME_SYSTEM><MEAN_ELEMENT_THEORY>SGP4</MEAN_ELEMENT_THEORY></metadata><data><meanElements><EPOCH>2026-01-09T04:30:25.556256</EPOCH><MEAN_MOTION>15.34856890</MEAN_MOTION><ECCENTRICITY>.0009792</ECCENTRICITY><INCLINATION>51.8667</INCLINATION><RA_OF_ASC_NODE>352.9491</RA_OF_ASC_NODE><ARG_OF_PERICENTER>190.4395</ARG_OF_PERICENTER><MEAN_ANOMALY>169.6389</MEAN_ANOMALY></meanElements><tleParameters><EPHEMERIS_TYPE>0</EPHEMERIS_TYPE><CLASSIFICATION_TYPE>U</CLASSIFICATION_TYPE><NORAD_CAT_ID>67157</NORAD_CAT_ID><ELEMENT_SET_NO>999</ELEMENT_SET_NO><REV_AT_EPOCH>458</REV_AT_EPOCH><BSTAR>.51363E-3</BSTAR><MEAN_MOTION_DOT>.17307E-3</MEAN_MOTION_DOT><MEAN_MOTION_DDOT>0</MEAN_MOTION_DDOT></tleParameters></data></segment></body></omm>
<omm id="CCSDS_OMM_VERS" version="2.0">
<header><CREATION_DATE/><ORIGINATOR/></header><body><segment><metadata><OBJECT_NAME>KUIPER-00261</OBJECT_NAME><OBJECT_ID>2025-301AB</OBJECT_ID><CENTER_NAME>EARTH</CENTER_NAME><REF_FRAME>TEME</REF_FRAME><TIME_SYSTEM>UTC</TIME_SYSTEM><MEAN_ELEMENT_THEORY>SGP4</MEAN_ELEMENT_THEORY></metadata><data><meanElements><EPOCH>2026-01-09T04:03:55.944000</EPOCH><MEAN_MOTION>15.36513805</MEAN_MOTION><ECCENTRICITY>.0005037</ECCENTRICITY><INCLINATION>51.8705</INCLINATION><RA_OF_ASC_NODE>352.8356</RA_OF_ASC_NODE><ARG_OF_PERICENTER>196.9703</ARG_OF_PERICENTER><MEAN_ANOMALY>163.1115</MEAN_ANOMALY></meanElements><tleParameters><EPHEMERIS_TYPE>0</EPHEMERIS_TYPE><CLASSIFICATION_TYPE>U</CLASSIFICATION_TYPE><NORAD_CAT_ID>67158</NORAD_CAT_ID><ELEMENT_SET_NO>999</ELEMENT_SET_NO><REV_AT_EPOCH>458</REV_AT_EPOCH><BSTAR>.15562E-1</BSTAR><MEAN_MOTION_DOT>.60249E-2</MEAN_MOTION_DOT><MEAN_MOTION_DDOT>0</MEAN_MOTION_DDOT></tleParameters></data></segment></body></omm>
<omm id="CCSDS_OMM_VERS" version="2.0">
<header><CREATION_DATE/><ORIGINATOR/></header><body><segment><metadata><OBJECT_NAME>KUIPER-00265</OBJECT_NAME><OBJECT_ID>2025-301AC</OBJECT_ID><CENTER_NAME>EARTH</CENTER_NAME><REF_FRAME>TEME</REF_FRAME><TIME_SYSTEM>UTC</TIME_SYSTEM><MEAN_ELEMENT_THEORY>SGP4</MEAN_ELEMENT_THEORY></metadata><data><meanElements><EPOCH>2026-01-09T04:00:01.998720</EPOCH><MEAN_MOTION>15.27899225</MEAN_MOTION><ECCENTRICITY>.0001604</ECCENTRICITY><INCLINATION>51.8775</INCLINATION><RA_OF_ASC_NODE>352.8995</RA_OF_ASC_NODE><ARG_OF_PERICENTER>123.1819</ARG_OF_PERICENTER><MEAN_ANOMALY>209.1389</MEAN_ANOMALY></meanElements><tleParameters><EPHEMERIS_TYPE>0</EPHEMERIS_TYPE><CLASSIFICATION_TYPE>U</CLASSIFICATION_TYPE><NORAD_CAT_ID>67159</NORAD_CAT_ID><ELEMENT_SET_NO>999</ELEMENT_SET_NO><REV_AT_EPOCH>461</REV_AT_EPOCH><BSTAR>-.71609E-3</BSTAR><MEAN_MOTION_DOT>-.20077E-3</MEAN_MOTION_DOT><MEAN_MOTION_DDOT>0</MEAN_MOTION_DDOT></tleParameters></data></segment></body></omm>
</ndm>
